start=new Date('2021-12-14T00:00:00.000Z').valueOf();
sats=[{"SITE":"AFETR","INCLINATION":"53.0569","APOAPSIS":"547.866","PERIAPSIS":"546.562","CLASSIFICATION_TYPE":"U","TIME_SYSTEM":"UTC","GP_ID":"191659063","OBJECT_ID":"2021-024AE","TLE_LINE1":"1 48005U 21024AE  21347.91526800  .00000990  00000-0  85338-4 0  9993","COUNTRY_CODE":"US","ELEMENT_SET_NO":"999","ECCENTRICITY":"0.00009420","PERIOD":"95.592","EPOCH":"2021-12-13T21:57:59.155200","MEAN_MOTION_DOT":"0.00000990","MEAN_MOTION":"15.06399814","TLE_LINE2":"2 48005  53.0569  50.3677 0000942 133.7344 226.3723 15.06399814 41786","OBJECT_TYPE":"PAYLOAD","REV_AT_EPOCH":"4178","RCS_SIZE":"LARGE","BSTAR":"0.00008533800000","ARG_OF_PERICENTER":"133.7344","RA_OF_ASC_NODE":"50.3677","EPHEMERIS_TYPE":"0","MEAN_MOTION_DDOT":"0.0000000000000","OBJECT_NAME":"STARLINK-2254","MEAN_ANOMALY":"226.3723","MEAN_ELEMENT_THEORY":"SGP4","DECAY_DATE":null,"CENTER_NAME":"EARTH","NORAD_CAT_ID":"48005","FILE":"3239585","LAUNCH_DATE":"2021-03-24","REF_FRAME":"TEME","SEMIMAJOR_AXIS":"6925.349"},{"INCLINATION":"53.0403","CLASSIFICATION_TYPE":"U","APOAPSIS":"290.736","PERIAPSIS":"288.189","SITE":"AFETR","MEAN_MOTION_DOT":"0.00676372","EPOCH":"2021-12-14T02:00:01.000224","ECCENTRICITY":"0.00019100","PERIOD":"90.305","ELEMENT_SET_NO":"999","GP_ID":"191638044","OBJECT_ID":"2021-024AG","TIME_SYSTEM":"UTC","COUNTRY_CODE":"US","TLE_LINE1":"1 48007U 21024AG  21348.08334491  .00676372  20189-3  17478-2 0  9991","OBJECT_NAME":"STARLINK-2259","MEAN_MOTION_DDOT":"0.0002018900000","MEAN_ANOMALY":"36.9365","MEAN_ELEMENT_THEORY":"SGP4","EPHEMERIS_TYPE":"0","ARG_OF_PERICENTER":"115.4834","RA_OF_ASC_NODE":"326.4770","BSTAR":"0.00174780000000","OBJECT_TYPE":"PAYLOAD","TLE_LINE2":"2 48007  53.0403 326.4770 0001910 115.4834  36.9365 15.94588605 42494","MEAN_MOTION":"15.94588605","REV_AT_EPOCH":"4249","RCS_SIZE":"LARGE","REF_FRAME":"TEME","LAUNCH_DATE":"2021-03-24","SEMIMAJOR_AXIS":"6667.598","FILE":"3239584","CENTER_NAME":"EARTH","NORAD_CAT_ID":"48007","DECAY_DATE":null},{"OBJECT_ID":"2021-024AH","GP_ID":"191660564","TIME_SYSTEM":"UTC","COUNTRY_CODE":"US","TLE_LINE1":"1 48008U 21024AH  21347.91667824  .00037793  00000-0  25440-2 0  9995","ELEMENT_SET_NO":"999","ECCENTRICITY":"0.00020830","PERIOD":"95.594","MEAN_MOTION_DOT":"0.00037793","EPOCH":"2021-12-13T22:00:00.999936","SITE":"AFETR","INCLINATION":"53.0527","CLASSIFICATION_TYPE":"U","PERIAPSIS":"545.838","APOAPSIS":"548.723","DECAY_DATE":null,"CENTER_NAME":"EARTH","NORAD_CAT_ID":"48008","FILE":"3239585","REF_FRAME":"TEME","LAUNCH_DATE":"2021-03-24","SEMIMAJOR_AXIS":"6925.416","OBJECT_TYPE":"PAYLOAD","TLE_LINE2":"2 48008  53.0527 345.3350 0002083  42.2836 208.1031 15.06378043  3617","MEAN_MOTION":"15.06378043","REV_AT_EPOCH":"361","RCS_SIZE":"LARGE","BSTAR":"0.00254400000000","EPHEMERIS_TYPE":"0","ARG_OF_PERICENTER":"42.2836","RA_OF_ASC_NODE":"345.3350","MEAN_MOTION_DDOT":"0.0000000000000","OBJECT_NAME":"STARLINK-2271","MEAN_ELEMENT_THEORY":"SGP4","MEAN_ANOMALY":"208.1031"},{"INCLINATION":"53.0557","CLASSIFICATION_TYPE":"U","PERIAPSIS":"546.475","APOAPSIS":"547.951","SITE":"AFETR","MEAN_MOTION_DOT":"0.00000814","EPOCH":"2021-12-13T14:24:07.918560","ECCENTRICITY":"0.00010660","PERIOD":"95.592","ELEMENT_SET_NO":"999","GP_ID":"191630020","OBJECT_ID":"2021-024AJ","TIME_SYSTEM":"UTC","COUNTRY_CODE":"US","TLE_LINE1":"1 48009U 21024AJ  21347.60009165  .00000814  00000-0  73499-4 0  9993","MEAN_MOTION_DDOT":"0.0000000000000","OBJECT_NAME":"STARLINK-2153","MEAN_ANOMALY":"283.6014","MEAN_ELEMENT_THEORY":"SGP4","EPHEMERIS_TYPE":"0","ARG_OF_PERICENTER":"76.5094","RA_OF_ASC_NODE":"61.7589","BSTAR":"0.00007349900000","TLE_LINE2":"2 48009  53.0557  61.7589 0001066  76.5094 283.6014 15.06400228 41139","OBJECT_TYPE":"PAYLOAD","MEAN_MOTION":"15.06400228","REV_AT_EPOCH":"4113","RCS_SIZE":"LARGE","REF_FRAME":"TEME","LAUNCH_DATE":"2021-03-24","SEMIMAJOR_AXIS":"6925.348","FILE":"3239217","CENTER_NAME":"EARTH","NORAD_CAT_ID":"48009","DECAY_DATE":null},{"OBJECT_NAME":"STARLINK-2226","MEAN_MOTION_DDOT":"0.0000000000000","MEAN_ANOMALY":"265.3522","MEAN_ELEMENT_THEORY":"SGP4","EPHEMERIS_TYPE":"0","RA_OF_ASC_NODE":"81.4353","ARG_OF_PERICENTER":"94.7608","BSTAR":"-0.00003672900000","OBJECT_TYPE":"PAYLOAD","TLE_LINE2":"2 48010  53.0531  81.4353 0001239  94.7608 265.3522 15.06398921 41335","MEAN_MOTION":"15.06398921","REV_AT_EPOCH":"4133","RCS_SIZE":"LARGE","REF_FRAME":"TEME","LAUNCH_DATE":"2021-03-24","SEMIMAJOR_AXIS":"6925.352","FILE":"3239585","CENTER_NAME":"EARTH","NORAD_CAT_ID":"48010","DECAY_DATE":null,"INCLINATION":"53.0531","CLASSIFICATION_TYPE":"U","PERIAPSIS":"546.359","APOAPSIS":"548.075","SITE":"AFETR","MEAN_MOTION_DOT":"-0.00000828","EPOCH":"2021-12-13T16:14:17.997216","ECCENTRICITY":"0.00012390","PERIOD":"95.592","ELEMENT_SET_NO":"999","OBJECT_ID":"2021-024AK","GP_ID":"191659563","TIME_SYSTEM":"UTC","COUNTRY_CODE":"US","TLE_LINE1":"1 48010U 21024AK  21347.67659719 -.00000828  00000-0 -36729-4 0  9990"},{"DECAY_DATE":null,"NORAD_CAT_ID":"48011","CENTER_NAME":"EARTH","FILE":"3239585","SEMIMAJOR_AXIS":"6925.354","REF_FRAME":"TEME","LAUNCH_DATE":"2021-03-24","REV_AT_EPOCH":"4170","RCS_SIZE":"LARGE","OBJECT_TYPE":"PAYLOAD","TLE_LINE2":"2 48011  53.0580  60.4208 0001288  80.8055 279.3080 15.06398141 41701","MEAN_MOTION":"15.06398141","BSTAR":"0.00008572400000","EPHEMERIS_TYPE":"0","RA_OF_ASC_NODE":"60.4208","ARG_OF_PERICENTER":"80.8055","MEAN_ELEMENT_THEORY":"SGP4","MEAN_ANOMALY":"279.3080","MEAN_MOTION_DDOT":"0.0000000000000","OBJECT_NAME":"STARLINK-2272","COUNTRY_CODE":"US","TLE_LINE1":"1 48011U 21024AL  21347.89864711  .00000996  00000-0  85724-4 0  9998","OBJECT_ID":"2021-024AL","GP_ID":"191659814","TIME_SYSTEM":"UTC","ELEMENT_SET_NO":"999","PERIOD":"95.592","ECCENTRICITY":"0.00012880","MEAN_MOTION_DOT":"0.00000996","EPOCH":"2021-12-13T21:34:03.110304","SITE":"AFETR","CLASSIFICATION_TYPE":"U","APOAPSIS":"548.111","PERIAPSIS":"546.327","INCLINATION":"53.0580"},{"OBJECT_TYPE":"PAYLOAD","TLE_LINE2":"2 48012  53.0576  35.6994 0001442  63.2884 296.8252 15.06402274 42046","MEAN_MOTION":"15.06402274","REV_AT_EPOCH":"4204","RCS_SIZE":"LARGE","BSTAR":"-0.00002657900000","EPHEMERIS_TYPE":"0","RA_OF_ASC_NODE":"35.6994","ARG_OF_PERICENTER":"63.2884","OBJECT_NAME":"STARLINK-2216","MEAN_MOTION_DDOT":"0.0000000000000","MEAN_ELEMENT_THEORY":"SGP4","MEAN_ANOMALY":"296.8252","DECAY_DATE":null,"CENTER_NAME":"EARTH","NORAD_CAT_ID":"48012","FILE":"3239585","REF_FRAME":"TEME","LAUNCH_DATE":"2021-03-24","SEMIMAJOR_AXIS":"6925.342","SITE":"AFETR","INCLINATION":"53.0576","CLASSIFICATION_TYPE":"U","PERIAPSIS":"546.208","APOAPSIS":"548.205","GP_ID":"191660065","OBJECT_ID":"2021-024AM","TIME_SYSTEM":"UTC","COUNTRY_CODE":"US","TLE_LINE1":"1 48012U 21024AM  21347.83739768 -.00000677  00000-0 -26579-4 0  9997","ELEMENT_SET_NO":"999","ECCENTRICITY":"0.00014420","PERIOD":"95.592","MEAN_MOTION_DOT":"-0.00000677","EPOCH":"2021-12-13T20:05:51.159552"},{"LAUNCH_DATE":"2021-03-24","REF_FRAME":"TEME","SEMIMAJOR_AXIS":"6925.354","FILE":"3239585","CENTER_NAME":"EARTH","NORAD_CAT_ID":"48013","DECAY_DATE":null,"OBJECT_NAME":"STARLINK-2243","MEAN_MOTION_DDOT":"0.0000000000000","MEAN_ANOMALY":"289.7536","MEAN_ELEMENT_THEORY":"SGP4","RA_OF_ASC_NODE":"45.6348","ARG_OF_PERICENTER":"70.3606","EPHEMERIS_TYPE":"0","BSTAR":"0.00009538800000","MEAN_MOTION":"15.06398207","OBJECT_TYPE":"PAYLOAD","TLE_LINE2":"2 48013  53.0560  45.6348 0001422  70.3606 289.7536 15.06398207 41857","REV_AT_EPOCH":"4185","RCS_SIZE":"LARGE","EPOCH":"2021-12-13T20:31:03.584640","MEAN_MOTION_DOT":"0.00001140","ECCENTRICITY":"0.00014220","PERIOD":"95.592","ELEMENT_SET_NO":"999","TIME_SYSTEM":"UTC","OBJECT_ID":"2021-024AN","GP_ID":"191660817","TLE_LINE1":"1 48013U 21024AN  21347.85490260  .00001140  00000-0  95388-4 0  9999","COUNTRY_CODE":"US","INCLINATION":"53.0560","PERIAPSIS":"546.234","APOAPSIS":"548.204","CLASSIFICATION_TYPE":"U","SITE":"AFETR"},{"INCLINATION":"53.0542","CLASSIFICATION_TYPE":"U","PERIAPSIS":"548.790","APOAPSIS":"550.759","SITE":"AFETR","ELEMENT_SET_NO":"999","OBJECT_ID":"2021-024AP","GP_ID":"191659064","TIME_SYSTEM":"UTC","COUNTRY_CODE":"US","TLE_LINE1":"1 48014U 21024AP  21347.91667824  .00012687  00000-0  88873-3 0  9997","MEAN_MOTION_DOT":"0.00012687","EPOCH":"2021-12-13T22:00:00.999936","ECCENTRICITY":"0.00014210","PERIOD":"95.645","BSTAR":"0.00088873000000","TLE_LINE2":"2 48014  53.0542   9.0646 0001421  64.2232 220.4748 15.05564666  3598","OBJECT_TYPE":"PAYLOAD","MEAN_MOTION":"15.05564666","RCS_SIZE":"LARGE","REV_AT_EPOCH":"359","MEAN_MOTION_DDOT":"0.0000000000000","OBJECT_NAME":"STARLINK-2283","MEAN_ANOMALY":"220.4748","MEAN_ELEMENT_THEORY":"SGP4","EPHEMERIS_TYPE":"0","ARG_OF_PERICENTER":"64.2232","RA_OF_ASC_NODE":"9.0646","CENTER_NAME":"EARTH","NORAD_CAT_ID":"48014","DECAY_DATE":null,"REF_FRAME":"TEME","LAUNCH_DATE":"2021-03-24","SEMIMAJOR_AXIS":"6927.910","FILE":"3239585"},{"ARG_OF_PERICENTER":"78.3122","RA_OF_ASC_NODE":"327.4141","EPHEMERIS_TYPE":"0","MEAN_MOTION_DDOT":"0.0000119920000","OBJECT_NAME":"STARLINK-2281","MEAN_ANOMALY":"179.7940","MEAN_ELEMENT_THEORY":"SGP4","MEAN_MOTION":"15.90905092","OBJECT_TYPE":"PAYLOAD","TLE_LINE2":"2 48015  53.0556 327.4141 0001211  78.3122 179.7940 15.90905092 42478","REV_AT_EPOCH":"4247","RCS_SIZE":"LARGE","BSTAR":"0.00016152000000","FILE":"3239315","LAUNCH_DATE":"2021-03-24","REF_FRAME":"TEME","SEMIMAJOR_AXIS":"6677.886","DECAY_DATE":null,"CENTER_NAME":"EARTH","NORAD_CAT_ID":"48015","SITE":"AFETR","INCLINATION":"53.0556","PERIAPSIS":"298.942","APOAPSIS":"300.560","CLASSIFICATION_TYPE":"U","ECCENTRICITY":"0.00012110","PERIOD":"90.515","EPOCH":"2021-12-13T22:00:00.999936","MEAN_MOTION_DOT":"0.00048431","TIME_SYSTEM":"UTC","GP_ID":"191632416","OBJECT_ID":"2021-024AQ","TLE_LINE1":"1 48015U 21024AQ  21347.91667824  .00048431  11992-4  16152-3 0  9991","COUNTRY_CODE":"US","ELEMENT_SET_NO":"999"}];
